CAS-2T & KS-1Q          
1 41847U 16066G   20258.40451680  .00000009  00000-0  12497-4 0  9994
2 41847  98.6456 309.7731 0364943 323.9985  33.7108 14.38090084202207
NAYIF-1 (EO-88)         
1 42017U 17008BX  20258.43080887  .00001198  00000-0  48309-4 0  9992
2 42017  97.3527 324.6716 0006539  23.2370 336.9164 15.26725405199129
MAX VALIER SAT          
1 42778U 17036P   20258.38691771  .00000698  00000-0  32774-4 0  9994
2 42778  97.2968 309.5285 0013820  72.7011 287.5737 15.22759675179268
RADFXSAT (FOX-1B)       
1 43017U 17073E   20258.28930580  .00000345  00000-0  31694-4 0  9994
2 43017  97.7161 167.0806 0257950 120.7089 241.9811 14.79012066152292
FOX-1D (AO-92)          
1 43137U 18004AC  20258.44045922  .00000818  00000-0  36417-4 0  9990
2 43137  97.4392 328.9754 0010802 101.6333 258.6117 15.24276516148608
DIWATA-2B               
1 43678U 18084H   20258.49140747  .00000039  00000-0  96334-5 0  9994
2 43678  97.8932  16.9406 0008572 239.1058 120.9338 14.91648921102299
ES'HAIL 2               
1 43700U 18090A   20258.49916360  .00000134  00000-0  00000-0 0  9995
2 43700   0.0176 180.4509 0001860  21.5431 357.4331  1.00271451  6607
FOX-1CLIFF (AO-95)      
1 43770U 18099N   20258.19146978  .00000068  00000-0  11458-4 0  9997
2 43770  97.6993 327.9978 0013157 259.5108 100.4631 14.95037109 97176
ITASAT 1                
1 43786U 18099AE  20258.43615025 -.00000083  00000-0 -23247-5 0  9994
2 43786  97.7012 328.7211 0013715 251.8830 108.0898 14.95372762 97235
JY1SAT (JO-97)          
1 43803U 18099AX  20258.23917061 -.00000164  00000-0 -95643-5 0  9996
2 43803  97.6971 328.3261 0013705 252.8325 107.1396 14.95558848 97209
PSAT2 (NO-104)          
1 44354U 19036R   20258.09828030  .00007397  00000-0  10372-3 0  9998
2 44354  28.5295 157.7989 0357653 178.7438 181.4114 15.05152211 67170
BRICSAT2 (NO-103)       
1 44355U 19036S   20258.08050027  .00013662  00000-0  18255-3 0  9991
2 44355  28.5302 143.9498 0330646 201.2964 157.3575 15.12040269 67328
JAISAT-1                
1 44419U 19038F   20258.45091502  .00000663  00000-0  41245-4 0  9991
2 44419  97.5475 219.0520 0021368 179.5187 180.6068 15.12908896 66053
DUCHIFAT-3              
1 44854U 19089C   20258.48137385  .00000203  00000-0  22821-4 0  9992
2 44854  36.9664 292.1953 0008315  55.3147 304.8368 14.99123511 41669
RS-44 & BREEZE-KM R/B   
1 44909U 19096E   20258.56505444  .00000045  00000-0  13371-3 0  9998
2 44909  82.5188 296.1076 0217677  18.4742 342.4108 12.79707995 33584
ORBITAL FACTORY 2 (OF-2)
1 45113U 19071C   20258.50409313  .00001432  00000-0  54801-4 0  9996
2 45113  51.6439 293.2822 0013181  20.5302 339.6207 15.33643107 34794
HUSKYSAT-1              
1 45119U 19071J   20258.53564753  .00000935  00000-0  39589-4 0  9998
2 45119  51.6435 292.7430 0012407  17.3044 342.8358 15.33837726 34797
